{
    "PYXIS": {
        "display_name": "Pyxis",
        "TLE1": "1 47936U 21022E   24001.79717618  .00002161  00000-0  19996-3 0  9996",
        "TLE2": "2 47936  97.6463 259.1116 0020266  95.1377 265.2158 14.95413872151593",
        "stats": {
            "eps_battery_voltage": {
                "display_name": "Battery Voltage",
                "value": "5.2"
            },
            "eps_battery_current": {
                "display_name": "Battery Current",
                "value": "3.05"
            }
        }
    }
}